{
  "norad_id": 64359,
  "name": "STARLINK-34291",
  "history": [
    {
      "epoch": "2026-03-28T17:18:15.242400Z",
      "apogee_km": 573.905797900673,
      "perigee_km": 570.1325581116334,
      "latitude_deg": -1.7508610482527792e-06,
      "longitude_deg": -99.27600612832877,
      "height_km": 574.4147443558254,
      "semi_major_axis_km": 6950.156178006153,
      "eccentricity": 0.00027145,
      "inclination_deg": 70.0025,
      "raan_deg": 346.4249,
      "arg_perigee_deg": 270.9654,
      "mean_anomaly_deg": 89.1194,
      "mean_motion_rev_day": 14.98341872
    }
  ]
}